[{"OBJECT_NAME":"HAWK-2C","OBJECT_ID":"2021-006CT","EPOCH":"2026-03-09T16:13:22.454976","MEAN_MOTION":15.33286436,"ECCENTRICITY":0.0006943,"INCLINATION":97.2417,"RA_OF_ASC_NODE":114.9961,"ARG_OF_PERICENTER":184.0877,"MEAN_ANOMALY":176.031,"EPHEMERIS_TYPE":0,"CLASSIFICATION_TYPE":"U","NORAD_CAT_ID":47502,"ELEMENT_SET_NO":999,"REV_AT_EPOCH":28424,"BSTAR":0.00025492914,"MEAN_MOTION_DOT":8.129e-5,"MEAN_MOTION_DDOT":0},{"OBJECT_NAME":"STARLINK-34336","OBJECT_ID":"2025-130AA","EPOCH":"2026-03-09T08:18:45.157536","MEAN_MOTION":15.30161213,"ECCENTRICITY":0.00011591,"INCLINATION":53.1586,"RA_OF_ASC_NODE":92.6753,"ARG_OF_PERICENTER":80.73,"MEAN_ANOMALY":279.3832,"EPHEMERIS_TYPE":0,"CLASSIFICATION_TYPE":"U","NORAD_CAT_ID":64462,"ELEMENT_SET_NO":999,"REV_AT_EPOCH":4061,"BSTAR":0.00058711216,"MEAN_MOTION_DOT":0.00017049,"MEAN_MOTION_DDOT":0}]
